[{"OBJECT_NAME":"CUTE-1 (CO-55)","OBJECT_ID":"2003-031E","EPOCH":"2026-04-25T18:31:47.054496","MEAN_MOTION":14.24301725,"ECCENTRICITY":0.00091422,"INCLINATION":98.6757,"RA_OF_ASC_NODE":124.9877,"ARG_OF_PERICENTER":345.2337,"MEAN_ANOMALY":14.8573,"EPHEMERIS_TYPE":0,"CLASSIFICATION_TYPE":"U","NORAD_CAT_ID":27844,"ELEMENT_SET_NO":999,"REV_AT_EPOCH":18421,"BSTAR":0.00013095489,"MEAN_MOTION_DOT":2.59e-6,"MEAN_MOTION_DDOT":0},{"OBJECT_NAME":"CUBESAT XI-IV (CO-57)","OBJECT_ID":"2003-031J","EPOCH":"2026-04-25T22:41:03.633216","MEAN_MOTION":14.23591802,"ECCENTRICITY":0.00094313,"INCLINATION":98.679,"RA_OF_ASC_NODE":124.9135,"ARG_OF_PERICENTER":3.4724,"MEAN_ANOMALY":356.6519,"EPHEMERIS_TYPE":0,"CLASSIFICATION_TYPE":"U","NORAD_CAT_ID":27848,"ELEMENT_SET_NO":999,"REV_AT_EPOCH":18394,"BSTAR":0.0001318734,"MEAN_MOTION_DOT":2.57e-6,"MEAN_MOTION_DDOT":0},{"OBJECT_NAME":"CUBESAT XI-V","OBJECT_ID":"2005-043F","EPOCH":"2026-04-25T09:38:42.197856","MEAN_MOTION":14.72487588,"ECCENTRICITY":0.00143109,"INCLINATION":98.2923,"RA_OF_ASC_NODE":269.9383,"ARG_OF_PERICENTER":18.3896,"MEAN_ANOMALY":341.7825,"EPHEMERIS_TYPE":0,"CLASSIFICATION_TYPE":"U","NORAD_CAT_ID":28895,"ELEMENT_SET_NO":999,"REV_AT_EPOCH":9398,"BSTAR":0.00021784435,"MEAN_MOTION_DOT":1.332e-5,"MEAN_MOTION_DDOT":0},{"OBJECT_NAME":"CUTE-1.7+APD II (CO-65)","OBJECT_ID":"2008-021C","EPOCH":"2026-04-25T22:28:24.033792","MEAN_MOTION":15.08945436,"ECCENTRICITY":0.00082642,"INCLINATION":97.8257,"RA_OF_ASC_NODE":96.2988,"ARG_OF_PERICENTER":194.5101,"MEAN_ANOMALY":165.5891,"EPHEMERIS_TYPE":0,"CLASSIFICATION_TYPE":"U","NORAD_CAT_ID":32785,"ELEMENT_SET_NO":999,"REV_AT_EPOCH":97731,"BSTAR":0.00039405832,"MEAN_MOTION_DOT":6.159e-5,"MEAN_MOTION_DDOT":0},{"OBJECT_NAME":"CANX-2","OBJECT_ID":"2008-021H","EPOCH":"2026-04-25T21:52:22.096704","MEAN_MOTION":15.05230872,"ECCENTRICITY":0.00093293,"INCLINATION":97.8606,"RA_OF_ASC_NODE":94.7002,"ARG_OF_PERICENTER":212.7866,"MEAN_ANOMALY":147.2782,"EPHEMERIS_TYPE":0,"CLASSIFICATION_TYPE":"U","NORAD_CAT_ID":32790,"ELEMENT_SET_NO":999,"REV_AT_EPOCH":97694,"BSTAR":0.00027489872,"MEAN_MOTION_DOT":3.863e-5,"MEAN_MOTION_DDOT":0},{"OBJECT_NAME":"SEEDS II (CO-66)","OBJECT_ID":"2008-021J","EPOCH":"2026-04-25T22:36:34.098048","MEAN_MOTION":15.30926157,"ECCENTRICITY":0.00049533,"INCLINATION":97.7532,"RA_OF_ASC_NODE":111.4231,"ARG_OF_PERICENTER":115.6257,"MEAN_ANOMALY":244.5496,"EPHEMERIS_TYPE":0,"CLASSIFICATION_TYPE":"U","NORAD_CAT_ID":32791,"ELEMENT_SET_NO":999,"REV_AT_EPOCH":97929,"BSTAR":0.00071587552,"MEAN_MOTION_DOT":0.00021355,"MEAN_MOTION_DDOT":0},{"OBJECT_NAME":"SWISSCUBE","OBJECT_ID":"2009-051B","EPOCH":"2026-04-25T16:34:30.213408","MEAN_MOTION":14.62374931,"ECCENTRICITY":0.00074219,"INCLINATION":98.4066,"RA_OF_ASC_NODE":22.6611,"ARG_OF_PERICENTER":26.1773,"MEAN_ANOMALY":333.9801,"EPHEMERIS_TYPE":0,"CLASSIFICATION_TYPE":"U","NORAD_CAT_ID":35932,"ELEMENT_SET_NO":999,"REV_AT_EPOCH":88148,"BSTAR":0.00019043956,"MEAN_MOTION_DOT":9.13e-6,"MEAN_MOTION_DDOT":0},{"OBJECT_NAME":"BEESAT-1","OBJECT_ID":"2009-051C","EPOCH":"2026-04-25T17:47:45.157632","MEAN_MOTION":14.61630477,"ECCENTRICITY":0.00061599,"INCLINATION":98.3995,"RA_OF_ASC_NODE":22.4572,"ARG_OF_PERICENTER":40.8365,"MEAN_ANOMALY":319.3296,"EPHEMERIS_TYPE":0,"CLASSIFICATION_TYPE":"U","NORAD_CAT_ID":35933,"ELEMENT_SET_NO":999,"REV_AT_EPOCH":88152,"BSTAR":0.0001638631,"MEAN_MOTION_DOT":7.66e-6,"MEAN_MOTION_DDOT":0},{"OBJECT_NAME":"ITUPSAT1","OBJECT_ID":"2009-051E","EPOCH":"2026-04-25T16:28:42.540672","MEAN_MOTION":14.60357466,"ECCENTRICITY":0.0008497,"INCLINATION":98.4081,"RA_OF_ASC_NODE":21.6484,"ARG_OF_PERICENTER":47.9628,"MEAN_ANOMALY":312.2293,"EPHEMERIS_TYPE":0,"CLASSIFICATION_TYPE":"U","NORAD_CAT_ID":35935,"ELEMENT_SET_NO":999,"REV_AT_EPOCH":88107,"BSTAR":0.00015487716,"MEAN_MOTION_DOT":7.0e-6,"MEAN_MOTION_DDOT":0},{"OBJECT_NAME":"TISAT 1","OBJECT_ID":"2010-035E","EPOCH":"2026-04-25T19:39:55.021248","MEAN_MOTION":15.29673687,"ECCENTRICITY":0.00047122,"INCLINATION":98.0676,"RA_OF_ASC_NODE":57.8202,"ARG_OF_PERICENTER":80.5731,"MEAN_ANOMALY":279.604,"EPHEMERIS_TYPE":0,"CLASSIFICATION_TYPE":"U","NORAD_CAT_ID":36799,"ELEMENT_SET_NO":999,"REV_AT_EPOCH":85969,"BSTAR":0.00079083136,"MEAN_MOTION_DOT":0.00022703,"MEAN_MOTION_DDOT":0},{"OBJECT_NAME":"AEROCUBE 4.5A","OBJECT_ID":"2012-048K","EPOCH":"2026-04-25T15:02:58.259616","MEAN_MOTION":15.72727017,"ECCENTRICITY":0.00255726,"INCLINATION":64.6323,"RA_OF_ASC_NODE":215.3959,"ARG_OF_PERICENTER":213.9715,"MEAN_ANOMALY":145.98,"EPHEMERIS_TYPE":0,"CLASSIFICATION_TYPE":"U","NORAD_CAT_ID":38767,"ELEMENT_SET_NO":999,"REV_AT_EPOCH":36434,"BSTAR":0.0010003492,"MEAN_MOTION_DOT":0.00140462,"MEAN_MOTION_DDOT":0},{"OBJECT_NAME":"STRAND-1","OBJECT_ID":"2013-009E","EPOCH":"2026-04-25T18:28:05.720160","MEAN_MOTION":14.37130836,"ECCENTRICITY":0.00092545,"INCLINATION":98.3915,"RA_OF_ASC_NODE":297.2968,"ARG_OF_PERICENTER":34.9138,"MEAN_ANOMALY":325.2654,"EPHEMERIS_TYPE":0,"CLASSIFICATION_TYPE":"U","NORAD_CAT_ID":39090,"ELEMENT_SET_NO":999,"REV_AT_EPOCH":68953,"BSTAR":9.9175096e-5,"MEAN_MOTION_DOT":2.52e-6,"MEAN_MOTION_DDOT":0},{"OBJECT_NAME":"BRITE-AUSTRIA","OBJECT_ID":"2013-009F","EPOCH":"2026-04-25T11:33:07.213536","MEAN_MOTION":14.3652013,"ECCENTRICITY":0.00109561,"INCLINATION":98.3985,"RA_OF_ASC_NODE":296.2244,"ARG_OF_PERICENTER":42.985,"MEAN_ANOMALY":317.2191,"EPHEMERIS_TYPE":0,"CLASSIFICATION_TYPE":"U","NORAD_CAT_ID":39091,"ELEMENT_SET_NO":999,"REV_AT_EPOCH":68948,"BSTAR":7.2826733e-5,"MEAN_MOTION_DOT":1.71e-6,"MEAN_MOTION_DDOT":0},{"OBJECT_NAME":"NEE-01 PEGASO","OBJECT_ID":"2013-018B","EPOCH":"2026-04-25T08:06:55.512864","MEAN_MOTION":14.93393609,"ECCENTRICITY":0.00120675,"INCLINATION":98.1148,"RA_OF_ASC_NODE":257.775,"ARG_OF_PERICENTER":343.8983,"MEAN_ANOMALY":16.1851,"EPHEMERIS_TYPE":0,"CLASSIFICATION_TYPE":"U","NORAD_CAT_ID":39151,"ELEMENT_SET_NO":999,"REV_AT_EPOCH":70281,"BSTAR":0.00027052449,"MEAN_MOTION_DOT":2.782e-5,"MEAN_MOTION_DDOT":0},{"OBJECT_NAME":"POPACS 2","OBJECT_ID":"2013-055E","EPOCH":"2026-04-25T16:23:25.850976","MEAN_MOTION":14.89898678,"ECCENTRICITY":0.04221803,"INCLINATION":80.994,"RA_OF_ASC_NODE":204.2358,"ARG_OF_PERICENTER":2.5925,"MEAN_ANOMALY":357.7332,"EPHEMERIS_TYPE":0,"CLASSIFICATION_TYPE":"U","NORAD_CAT_ID":39269,"ELEMENT_SET_NO":999,"REV_AT_EPOCH":65539,"BSTAR":0.00028065188,"MEAN_MOTION_DOT":0.00016412,"MEAN_MOTION_DDOT":0},{"OBJECT_NAME":"POPACS 3","OBJECT_ID":"2013-055F","EPOCH":"2026-04-25T10:59:47.230656","MEAN_MOTION":14.54824082,"ECCENTRICITY":0.05555784,"INCLINATION":81.0004,"RA_OF_ASC_NODE":286.311,"ARG_OF_PERICENTER":230.382,"MEAN_ANOMALY":124.7084,"EPHEMERIS_TYPE":0,"CLASSIFICATION_TYPE":"U","NORAD_CAT_ID":39270,"ELEMENT_SET_NO":999,"REV_AT_EPOCH":63088,"BSTAR":0.00023185937,"MEAN_MOTION_DOT":9.566e-5,"MEAN_MOTION_DDOT":0}]
